STARLINK-37746          
1 69230U 26115V   26157.91670139  .00130364  00000+0  67260-3 0  9992
2 69230  97.2840 174.8361 0001137  83.5195 345.9315 15.80770730  3040
STARLINK-37557          
1 69231U 26115W   26157.91670139  .00151408  00000+0  77944-3 0  9995
2 69231  97.2843 174.8440 0001353  89.0157 358.6217 15.80762875  3044
STARLINK-37745          
1 69232U 26115X   26157.91670139  .00154705  00000+0  79647-3 0  9991
2 69232  97.2835 174.8538 0001346 103.4407   7.1208 15.80752549  3048
STARLINK-37739          
1 69233U 26115Y   26157.91670139  .00143230  00000+0  73821-3 0  9991
2 69233  97.2842 174.8423 0001067  91.1565 351.8058 15.80759017  3047
STARLINK-37755          
1 69234U 26115Z   26157.91670139 -.00071947  00000+0 -48416-3 0  9991
2 69234  97.2852 174.8375 0001881  89.0064 343.6497 15.75254903  3043
STARLINK-37665          
1 69238U 26117A   26157.91670139 -.02027151  00000+0 -80702-2 0  9990
2 69238  53.1575 295.2192 0000959  54.2430 109.1140 15.88813438  2521
STARLINK-37558          
1 69239U 26117B   26157.91670139 -.02087537  00000+0 -83224-2 0  9997
2 69239  53.1573 295.2076 0001023  47.3979 121.5822 15.88877840  2527
STARLINK-37680          
1 69240U 26117C   26157.91670139 -.02076671  00000+0 -81518-2 0  9990
2 69240  53.1574 295.1941 0001038  50.3350 125.1659 15.89164648  2516
STARLINK-37742          
1 69241U 26117D   26157.91670139 -.02038738  00000+0 -77750-2 0  9996
2 69241  53.1574 295.1800 0001031  46.4333 135.7483 15.89670660  2520
STARLINK-37718          
1 69242U 26117E   26157.91670139 -.02060182  00000+0 -77699-2 0  9997
2 69242  53.1573 295.1681 0000912  47.3107 140.5952 15.89920693  2511
STARLINK-37735          
1 69243U 26117F   26157.91670139 -.02122412  00000+0 -81499-2 0  9996
2 69243  53.1571 295.1619 0000899  52.5495 138.3348 15.89666790  2523
STARLINK-37757          
1 69244U 26117G   26157.91670139 -.02083200  00000+0 -77294-2 0  9996
2 69244  53.1572 295.1423 0000933  45.9129 154.2896 15.90271756  2528
STARLINK-37767          
1 69245U 26117H   26157.91670139 -.02369680  14862-2 -73414-2 0  9990
2 69245  53.1569 295.1054 0000803  51.9014 166.1844 15.91190430  2526
STARLINK-35759          
1 69246U 26117J   26157.91670139 -.02389944  15114-2 -73858-2 0  9999
2 69246  53.1568 295.0974 0000871  57.6803 164.2245 15.91240501  2574
STARLINK-37238          
1 69247U 26117K   26157.91670139 -.02295830  14164-2 -66886-2 0  9997
2 69247  53.1570 295.0660 0000822  49.2815 187.5456 15.92371544  2526
STARLINK-37412          
1 69248U 26117L   26157.91670139 -.02313377  14484-2 -64871-2 0  9992
2 69248  53.1570 295.0387 0000619  54.2466 195.8659 15.93103275  2594
STARLINK-37398          
1 69249U 26117M   26157.91670139 -.02339181  14791-2 -65702-2 0  9999
2 69249  53.1566 295.0323 0000584  39.8506 213.1230 15.93074397  2596
STARLINK-37499          
1 69250U 26117N   26157.91670139 -.02337872  14812-2 -64854-2 0  9997
2 69250  53.1568 295.0212 0000782  48.5343 209.9705 15.93310241  2594
STARLINK-37489          
1 69251U 26117P   26157.91670139 -.02348270  14984-2 -64195-2 0  9990
2 69251  53.1571 295.0049 0000642  34.6492 231.5819 15.93588748  2599
STARLINK-37434          
1 69252U 26117Q   26157.91670139 -.02279514  14259-2 -60106-2 0  9998
2 69252  53.1568 294.9862 0000737  42.2540 232.7412 15.94263089  2525
STARLINK-37368          
1 69253U 26117R   26157.91670139 -.02191891  13439-2 -53521-2 0  9992
2 69253  53.1568 294.9434 0000688  40.0362 255.6425 15.95684928  2599
STARLINK-37517          
1 69254U 26117S   26157.91670139 -.02184647  13384-2 -52763-2 0  9990
2 69254  53.1568 294.9337 0000568  45.9600 254.6235 15.95886374  2595
STARLINK-37378          
1 69255U 26117T   26157.91670139 -.02229145  13901-2 -54003-2 0  9998
2 69255  53.1568 294.9251 0000622  45.2134 259.2471 15.95833836  2517
STARLINK-37396          
1 69256U 26117U   26157.91670139 -.02233288  14016-2 -52879-2 0  9999
2 69256  53.1567 294.9049 0000610  49.0695 264.9228 15.96254550  2595
STARLINK-37508          
1 69257U 26117V   26157.91670139 -.02258084  14359-2 -52702-2 0  9996
2 69257  53.1565 294.8902 0000461  50.5349 270.3120 15.96520246  2510
STARLINK-37276          
1 69258U 26117W   26157.91670139 -.01880084  10702-2 -33610-2 0  9992
2 69258  53.1561 294.8180 0000571  38.8503 316.3267 16.01210458  2519
STARLINK-37518          
1 69259U 26117X   26157.91670139 -.01855571  10434-2 -33297-2 0  9999
2 69259  53.1558 294.8066 0000492  45.4240 315.6271 16.01142482  2522
STARLINK-37478          
1 69260U 26117Y   26157.91670139 -.02018002  12118-2 -37811-2 0  9999
2 69260  53.1560 294.8028 0000623  39.8838 322.9928 16.00412574  2522
STARLINK-37506          
1 69261U 26117Z   26157.91670139 -.02055044  12551-2 -38408-2 0  9991
2 69261  53.1556 294.7934 0000696  39.9594 327.3592 16.00460119  2527
