OBJECT_NAME,OBJECT_ID,EPOCH,MEAN_MOTION,ECCENTRICITY,INCLINATION,RA_OF_ASC_NODE,ARG_OF_PERICENTER,MEAN_ANOMALY,EPHEMERIS_TYPE,CLASSIFICATION_TYPE,NORAD_CAT_ID,ELEMENT_SET_NO,REV_AT_EPOCH,BSTAR,MEAN_MOTION_DOT,MEAN_MOTION_DDOT
STARLINK-37746,2026-115V,2026-06-06T22:00:03.000096,15.80770730,.00011379,97.2840,174.8361,83.5195,345.9315,0,U,69230,999,304,.67259849E-3,.130364E-2,0
STARLINK-37557,2026-115W,2026-06-06T22:00:03.000096,15.80762875,.00013536,97.2843,174.8440,89.0157,358.6217,0,U,69231,999,304,.7794369E-3,.151408E-2,0
STARLINK-37745,2026-115X,2026-06-06T22:00:03.000096,15.80752549,.00013469,97.2835,174.8538,103.4407,7.1208,0,U,69232,999,304,.79646559E-3,.154705E-2,0
STARLINK-37739,2026-115Y,2026-06-06T22:00:03.000096,15.80759017,.00010676,97.2842,174.8423,91.1565,351.8058,0,U,69233,999,304,.73820965E-3,.14323E-2,0
STARLINK-37755,2026-115Z,2026-06-06T22:00:03.000096,15.75254903,.00018819,97.2852,174.8375,89.0064,343.6497,0,U,69234,999,304,-.48415705E-3,-.71947E-3,0
STARLINK-37665,2026-117A,2026-06-06T22:00:03.000096,15.88813438,.00009592,53.1575,295.2192,54.2430,109.1140,0,U,69238,999,252,-.80702318E-2,-.2027151E-1,0
STARLINK-37558,2026-117B,2026-06-06T22:00:03.000096,15.88877840,.00010238,53.1573,295.2076,47.3979,121.5822,0,U,69239,999,252,-.8322438E-2,-.2087537E-1,0
STARLINK-37680,2026-117C,2026-06-06T22:00:03.000096,15.89164648,.00010381,53.1574,295.1941,50.3350,125.1659,0,U,69240,999,251,-.81517692E-2,-.2076671E-1,0
STARLINK-37742,2026-117D,2026-06-06T22:00:03.000096,15.89670660,.00010319,53.1574,295.1800,46.4333,135.7483,0,U,69241,999,252,-.77749887E-2,-.2038738E-1,0
STARLINK-37718,2026-117E,2026-06-06T22:00:03.000096,15.89920693,.00009128,53.1573,295.1681,47.3107,140.5952,0,U,69242,999,251,-.77699343E-2,-.2060182E-1,0
STARLINK-37735,2026-117F,2026-06-06T22:00:03.000096,15.89666790,.00008992,53.1571,295.1619,52.5495,138.3348,0,U,69243,999,252,-.81498652E-2,-.2122412E-1,0
STARLINK-37757,2026-117G,2026-06-06T22:00:03.000096,15.90271756,.00009335,53.1572,295.1423,45.9129,154.2896,0,U,69244,999,252,-.77293932E-2,-.20832E-1,0
STARLINK-37767,2026-117H,2026-06-06T22:00:03.000096,15.91190430,.00008036,53.1569,295.1054,51.9014,166.1844,0,U,69245,999,252,-.73414262E-2,-.236968E-1,.14861728E-2
STARLINK-35759,2026-117J,2026-06-06T22:00:03.000096,15.91240501,.00008715,53.1568,295.0974,57.6803,164.2245,0,U,69246,999,257,-.73857692E-2,-.2389944E-1,.1511401E-2
STARLINK-37238,2026-117K,2026-06-06T22:00:03.000096,15.92371544,.00008221,53.1570,295.0660,49.2815,187.5456,0,U,69247,999,252,-.66885518E-2,-.229583E-1,.14164439E-2
STARLINK-37412,2026-117L,2026-06-06T22:00:03.000096,15.93103275,.00006197,53.1570,295.0387,54.2466,195.8659,0,U,69248,999,259,-.64870685E-2,-.2313377E-1,.14484258E-2
STARLINK-37398,2026-117M,2026-06-06T22:00:03.000096,15.93074397,.00005848,53.1566,295.0323,39.8506,213.1230,0,U,69249,999,259,-.65701568E-2,-.2339181E-1,.1479056E-2
STARLINK-37499,2026-117N,2026-06-06T22:00:03.000096,15.93310241,.00007821,53.1568,295.0212,48.5343,209.9705,0,U,69250,999,259,-.64853677E-2,-.2337872E-1,.14812347E-2
STARLINK-37489,2026-117P,2026-06-06T22:00:03.000096,15.93588748,.00006426,53.1571,295.0049,34.6492,231.5819,0,U,69251,999,259,-.64195014E-2,-.234827E-1,.14984226E-2
STARLINK-37434,2026-117Q,2026-06-06T22:00:03.000096,15.94263089,.00007374,53.1568,294.9862,42.2540,232.7412,0,U,69252,999,252,-.60105733E-2,-.2279514E-1,.14259156E-2
STARLINK-37368,2026-117R,2026-06-06T22:00:03.000096,15.95684928,.00006889,53.1568,294.9434,40.0362,255.6425,0,U,69253,999,259,-.53521101E-2,-.2191891E-1,.13439235E-2
STARLINK-37517,2026-117S,2026-06-06T22:00:03.000096,15.95886374,.00005689,53.1568,294.9337,45.9600,254.6235,0,U,69254,999,259,-.52762739E-2,-.2184647E-1,.13384486E-2
STARLINK-37378,2026-117T,2026-06-06T22:00:03.000096,15.95833836,.00006223,53.1568,294.9251,45.2134,259.2471,0,U,69255,999,251,-.54003029E-2,-.2229145E-1,.13901101E-2
STARLINK-37396,2026-117U,2026-06-06T22:00:03.000096,15.96254550,.00006108,53.1567,294.9049,49.0695,264.9228,0,U,69256,999,259,-.52879363E-2,-.2233288E-1,.14016163E-2
STARLINK-37508,2026-117V,2026-06-06T22:00:03.000096,15.96520246,.00004612,53.1565,294.8902,50.5349,270.3120,0,U,69257,999,251,-.52701807E-2,-.2258084E-1,.14358667E-2
STARLINK-37276,2026-117W,2026-06-06T22:00:03.000096,16.01210458,.00005711,53.1561,294.8180,38.8503,316.3267,0,U,69258,999,251,-.33610088E-2,-.1880084E-1,.10702156E-2
STARLINK-37518,2026-117X,2026-06-06T22:00:03.000096,16.01142482,.0000492,53.1558,294.8066,45.4240,315.6271,0,U,69259,999,252,-.33297499E-2,-.1855571E-1,.10433708E-2
STARLINK-37478,2026-117Y,2026-06-06T22:00:03.000096,16.00412574,.00006233,53.1560,294.8028,39.8838,322.9928,0,U,69260,999,252,-.37811162E-2,-.2018002E-1,.12118188E-2
STARLINK-37506,2026-117Z,2026-06-06T22:00:03.000096,16.00460119,.00006961,53.1556,294.7934,39.9594,327.3592,0,U,69261,999,252,-.38407955E-2,-.2055044E-1,.12550959E-2
